NORAD_CAT_ID,OBJECT_NAME,OBJECT_TYPE,EPOCH,MEAN_MOTION,ECCENTRICITY,INCLINATION,RA_OF_ASC_NODE,ARG_OF_PERICENTER,MEAN_ANOMALY,BSTAR,MEAN_MOTION_DOT,MEAN_MOTION_DDOT,TLE_LINE0,TLE_LINE1,TLE_LINE2,SEMIMAJOR_AXIS,PERIOD,APOGEE,PERIGEE,DECAYED
52350.0,STARLINK-3754,PAYLOAD,2023-01-20 11:10:01,15.08828151,0.0001022999999999,53.2152,295.7445,79.0562,281.0545,0.00021255,3.095e-05,0.0,0 STARLINK-3754,1 52350U 22045V   23020.46529396  .00003095  00000-0  21255-3 0  9994,2 52350  53.2152 295.7445 0001023  79.0562 281.0545 15.08828151 43041,6917.917,95.438,540.489,539.0740000000001,0.0
52350.0,STARLINK-3754,PAYLOAD,2023-01-21 03:03:52,15.08848412,9.96e-05,53.2149,292.768,83.8137,276.2969,0.00098245,0.00015386,0.0,0 STARLINK-3754,1 52350U 22045V   23021.12769275  .00015386  00000-0  98245-3 0  9999,2 52350  53.2149 292.7680 0000996  83.8137 276.2969 15.08848412 43143,6917.855,95.437,540.409,539.031,0.0
52350.0,STARLINK-3754,PAYLOAD,2023-01-21 11:00:48,15.08841742,9.58e-05,53.2157,291.2833,96.1504,263.9597,0.00067566,0.00010482,0.0,0 STARLINK-3754,1 52350U 22045V   23021.45889497  .00010482  00000-0  67566-3 0  9998,2 52350  53.2157 291.2833 0000958  96.1504 263.9597 15.08841742 43193,6917.875,95.437,540.403,539.077,0.0
52350.0,STARLINK-3754,PAYLOAD,2023-01-22 10:51:35,15.08839565,0.0002376,53.2149,286.8243,72.4805,287.6447,3.0646e-05,1.99e-06,0.0,0 STARLINK-3754,1 52350U 22045V   23022.45249737  .00000199  00000-0  30646-4 0  9990,2 52350  53.2149 286.8243 0002376  72.4805 287.6447 15.08839565 43340,6917.882,95.438,541.39,538.1030000000001,0.0
52350.0,STARLINK-3754,PAYLOAD,2023-01-24 02:36:13,15.08867198,0.000123,53.214,279.3869,77.5512,282.5618,0.0012205999999999,0.00019206,0.0,0 STARLINK-3754,1 52350U 22045V   23024.10849410  .00019206  00000-0  12206-2 0  9997,2 52350  53.2140 279.3869 0001230  77.5512 282.5618 15.08867198 43595,6917.797,95.436,540.513,538.811,0.0
52350.0,STARLINK-3754,PAYLOAD,2023-01-24 20:05:28,15.08850436,0.0001357,53.2138,276.1163,87.6534,272.4613,0.00049567,7.612e-05,0.0,0 STARLINK-3754,1 52350U 22045V   23024.83713626  .00007612  00000-0  49567-3 0  9995,2 52350  53.2138 276.1163 0001357  87.6534 272.4613 15.08850436 43703,6917.848000000001,95.437,540.6519999999999,538.775,0.0
52350.0,STARLINK-3754,PAYLOAD,2023-01-24 23:16:14,15.08847295,0.0001422,53.2141,275.521,87.7383,272.3772,0.00040699,6.196e-05,0.0,0 STARLINK-3754,1 52350U 22045V   23024.96961654  .00006196  00000-0  40699-3 0  9998,2 52350  53.2141 275.5210 0001422  87.7383 272.3772 15.08847295 43725,6917.858,95.437,540.707,538.739,0.0
52350.0,STARLINK-3754,PAYLOAD,2023-01-25 19:56:16,15.08838135,0.000156,53.2144,271.654,87.5212,272.5958,0.00026952,4.004e-05,0.0,0 STARLINK-3754,1 52350U 22045V   23025.83074081  .00004004  00000-0  26952-3 0  9996,2 52350  53.2144 271.6540 0001560  87.5212 272.5958 15.08838135 43858,6917.886,95.438,540.83,538.672,0.0
52350.0,STARLINK-3754,PAYLOAD,2023-01-26 02:17:48,15.08841769,0.0001494,53.2148,270.4654,98.3287,261.7875,0.00039018,5.927e-05,0.0,0 STARLINK-3754,1 52350U 22045V   23026.09570060  .00005927  00000-0  39018-3 0  9995,2 52350  53.2148 270.4654 0001494  98.3287 261.7875 15.08841769 43892,6917.875,95.437,540.774,538.706,0.0
52350.0,STARLINK-3754,PAYLOAD,2023-01-26 22:57:48,15.08848471,0.0001439,53.2135,266.6003,79.98899999999999,280.1264,0.00025067,3.705e-05,0.0,0 STARLINK-3754,1 52350U 22045V   23026.95681683  .00003705  00000-0  25067-3 0  9995,2 52350  53.2135 266.6003 0001439  79.9890 280.1264 15.08848471 44027,6917.854,95.437,540.715,538.724,0.0
52350.0,STARLINK-3754,PAYLOAD,2023-01-27 11:40:53,15.08841349,0.0001054999999999,53.2127,264.2153,89.9317,270.1796,-2.2476e-05,-6.45e-06,0.0,0 STARLINK-3754,1 52350U 22045V   23027.48673477 -.00000645  00000-0 -22476-4 0  9990,2 52350  53.2127 264.2153 0001055  89.9317 270.1796 15.08841349 44102,6917.876,95.437,540.471,539.011,0.0
52350.0,STARLINK-3754,PAYLOAD,2023-01-27 21:13:13,15.088378400000002,0.0001276,53.2137,262.4368,90.566,269.5479,-1.0613e-05,-4.57e-06,0.0,0 STARLINK-3754,1 52350U 22045V   23027.88417994 -.00000457  00000-0 -10613-4 0  9995,2 52350  53.2137 262.4368 0001276  90.5660 269.5479 15.08837840 44162,6917.887,95.438,540.635,538.869,0.0
52350.0,STARLINK-3754,PAYLOAD,2023-01-28 14:42:27,15.08837967,0.0001238,53.2135,259.1664,85.6285,274.4848,5.0585e-05,5.17e-06,0.0,0 STARLINK-3754,1 52350U 22045V   23028.61282074  .00000517  00000-0  50585-4 0  9993,2 52350  53.2135 259.1664 0001238  85.6285 274.4848 15.08837967 44275,6917.887,95.438,540.608,538.895,0.0
52350.0,STARLINK-3754,PAYLOAD,2023-01-28 21:04:00,15.08843606,0.0001223,53.2138,257.9767,90.6194,269.4938,3.5403e-05,2.76e-06,0.0,0 STARLINK-3754,1 52350U 22045V   23028.87777810  .00000276  00000-0  35403-4 0  9992,2 52350  53.2138 257.9767 0001223  90.6194 269.4938 15.08843606 44313,6917.869,95.437,540.58,538.888,0.0
52350.0,STARLINK-3754,PAYLOAD,2023-01-29 20:54:47,15.08836079,0.0001175,53.2138,253.5159,84.3946,275.718,0.00010889,1.445e-05,0.0,0 STARLINK-3754,1 52350U 22045V   23029.87138424  .00001445  00000-0  10889-3 0  9994,2 52350  53.2138 253.5159 0001175  84.3946 275.7180 15.08836079 44462,6917.892,95.438,540.57,538.945,0.0
52350.0,STARLINK-3754,PAYLOAD,2023-01-30 14:24:02,15.08840524,0.0001215,53.2143,250.2444,82.9326,277.1804,7.2614e-05,8.68e-06,0.0,0 STARLINK-3754,1 52350U 22045V   23030.60002339  .00000868  00000-0  72614-4 0  9995,2 52350  53.2143 250.2444 0001215  82.9326 277.1804 15.08840524 44571,6917.879,95.438,540.584,538.903,0.0
52350.0,STARLINK-3754,PAYLOAD,2023-01-30 20:45:34,15.08844917,0.0001192,53.2149,249.0549,85.2071,274.9058,0.00010533,1.389e-05,0.0,0 STARLINK-3754,1 52350U 22045V   23030.86498088  .00001389  00000-0  10533-3 0  9993,2 52350  53.2149 249.0549 0001192  85.2071 274.9058 15.08844917 44617,6917.865,95.437,540.555,538.906,0.0
52350.0,STARLINK-3754,PAYLOAD,2023-01-31 12:39:25,15.08841663,0.0001207,53.2146,246.0814,83.9627,276.1503,0.00010945,1.455e-05,0.0,0 STARLINK-3754,1 52350U 22045V   23031.52738229  .00001455  00000-0  10945-3 0  9992,2 52350  53.2146 246.0814 0001207  83.9627 276.1503 15.08841663 44710,6917.875,95.437,540.575,538.905,0.0
52350.0,STARLINK-3754,PAYLOAD,2023-01-31 20:36:21,15.08845369,0.0001212,53.2148,244.5941,88.5644,271.5487,0.0001246,1.696e-05,0.0,0 STARLINK-3754,1 52350U 22045V   23031.85857868  .00001696  00000-0  12460-3 0  9990,2 52350  53.2148 244.5941 0001212  88.5644 271.5487 15.08845369 44764,6917.864,95.437,540.567,538.891,0.0
52350.0,STARLINK-3754,PAYLOAD,2023-02-01 14:05:36,15.08839827,0.0001226,53.2146,241.3225,96.3551,263.7581,4.9989e-05,5.08e-06,0.0,0 STARLINK-3754,1 52350U 22045V   23032.58722306  .00000508  00000-0  49989-4 0  9997,2 52350  53.2146 241.3225 0001226  96.3551 263.7581 15.08839827 44873,6917.881,95.438,540.594,538.898,0.0
52350.0,STARLINK-3754,PAYLOAD,2023-02-01 23:37:54,15.08841347,0.0001225,53.2145,239.5383,95.8269,264.2863,5.4238e-05,5.75e-06,0.0,0 STARLINK-3754,1 52350U 22045V   23032.98466152  .00000575  00000-0  54238-4 0  9992,2 52350  53.2145 239.5383 0001225  95.8269 264.2863 15.08841347 44931,6917.876,95.437,540.589,538.894,0.0
52350.0,STARLINK-3754,PAYLOAD,2023-02-02 17:07:09,15.08838415,0.0001224,53.2146,236.2674,97.2349,262.8782,4.3624e-05,4.06e-06,0.0,0 STARLINK-3754,1 52350U 22045V   23033.71330370  .00000406  00000-0  43624-4 0  9996,2 52350  53.2146 236.2674 0001224  97.2349 262.8782 15.08838415 45042,6917.885,95.438,540.597,538.903,0.0
52350.0,STARLINK-3754,PAYLOAD,2023-02-03 13:47:10,15.08836167,0.0001426,53.214,232.4009,109.1339,250.9807,6.0133e-05,6.69e-06,0.0,0 STARLINK-3754,1 52350U 22045V   23034.57442447  .00000669  00000-0  60133-4 0  9995,2 52350  53.2140 232.4009 0001426 109.1339 250.9807 15.08836167 45174,6917.892,95.438,540.744,538.771,0.0
52350.0,STARLINK-3754,PAYLOAD,2023-02-04 07:16:24,15.08837698,0.0001171,53.2147,229.1306,98.704,261.4085,7.1827e-05,8.55e-06,0.0,0 STARLINK-3754,1 52350U 22045V   23035.30306502  .00000855  00000-0  71827-4 0  9997,2 52350  53.2147 229.1306 0001171  98.7040 261.4085 15.08837698 45280,6917.887,95.438,540.563,538.942,0.0
52350.0,STARLINK-3754,PAYLOAD,2023-02-04 12:02:34,15.08836003,0.0001174,53.2147,228.2386,98.5126,261.5999,5.3753e-05,5.68e-06,0.0,0 STARLINK-3754,1 52350U 22045V   23035.50178704  .00000568  00000-0  53753-4 0  9999,2 52350  53.2147 228.2386 0001174  98.5126 261.5999 15.08836003 45312,6917.893,95.438,540.57,538.945,0.0
52350.0,STARLINK-3754,PAYLOAD,2023-02-04 19:59:30,15.08837019,0.0001104,53.2149,226.7518,96.7951,263.3166,6.0122e-05,6.69e-06,0.0,0 STARLINK-3754,1 52350U 22045V   23035.83298685  .00000669  00000-0  60122-4 0  9996,2 52350  53.2149 226.7518 0001104  96.7951 263.3166 15.08837019 45362,6917.89,95.438,540.518,538.991,0.0
52350.0,STARLINK-3754,PAYLOAD,2023-02-05 13:28:44,15.08834522,0.00011,53.215,223.4809,92.9993,267.1125,3.5774e-05,2.82e-06,0.0,0 STARLINK-3754,1 52350U 22045V   23036.56163103  .00000282  00000-0  35774-4 0  9999,2 52350  53.2150 223.4809 0001100  92.9993 267.1125 15.08834522 45476,6917.897,95.438,540.523,539.001,0.0
52350.0,STARLINK-3754,PAYLOAD,2023-02-05 21:25:40,15.08839638,0.0001115,53.2151,221.994,91.0797,269.0323,4.8817e-05,4.89e-06,0.0,0 STARLINK-3754,1 52350U 22045V   23036.89282799  .00000489  00000-0  48817-4 0  9999,2 52350  53.2151 221.9940 0001115  91.0797 269.0323 15.08839638 45524,6917.881,95.438,540.518,538.975,0.0
52350.0,STARLINK-3754,PAYLOAD,2023-02-06 18:05:41,15.08840814,0.0001107,53.2155,218.1282,87.7674,272.3445,9.1951e-05,1.176e-05,0.0,0 STARLINK-3754,1 52350U 22045V   23037.75394759  .00001176  00000-0  91951-4 0  9996,2 52350  53.2155 218.1282 0001107  87.7674 272.3445 15.08840814 45656,6917.878,95.438,540.509,538.977,0.0
52350.0,STARLINK-3754,PAYLOAD,2023-02-07 11:34:55,15.08841271,0.0001104,53.2158,214.8568,85.0403,275.0715,0.00010351,1.36e-05,0.0,0 STARLINK-3754,1 52350U 22045V   23038.48258714  .00001360  00000-0  10351-3 0  9996,2 52350  53.2158 214.8568 0001104  85.0403 275.0715 15.08841271 45767,6917.877,95.437,540.505,538.978,0.0
